{"fetched_at":"2026-07-08T17:59:51.887Z","source":"https://celestrak.org/NORAD/elements/gp.php?NAME=JILIN&FORMAT=JSON","constellation":"jilin-1-gaofen","records":[{"OBJECT_NAME":"JILIN-1 GAOFEN 3A","OBJECT_ID":"2019-032C","EPOCH":"2026-07-08T12:36:54.054432","CLASSIFICATION_TYPE":"U","MEAN_MOTION":15.33102641,"ECCENTRICITY":0.0004702,"INCLINATION":44.9745,"RA_OF_ASC_NODE":239.4582,"ARG_OF_PERICENTER":55.9586,"MEAN_ANOMALY":304.1745,"EPHEMERIS_TYPE":0,"NORAD_CAT_ID":44312,"ELEMENT_SET_NO":999,"REV_AT_EPOCH":39111,"BSTAR":0.00019992,"MEAN_MOTION_DOT":0.00006211,"MEAN_MOTION_DDOT":0},{"OBJECT_NAME":"JILIN-1 GAOFEN 2A","OBJECT_ID":"2019-075A","EPOCH":"2026-07-08T12:26:17.995776","CLASSIFICATION_TYPE":"U","MEAN_MOTION":15.39892286,"ECCENTRICITY":0.0005849,"INCLINATION":97.4958,"RA_OF_ASC_NODE":273.8145,"ARG_OF_PERICENTER":19.8252,"MEAN_ANOMALY":340.322,"EPHEMERIS_TYPE":0,"NORAD_CAT_ID":44777,"ELEMENT_SET_NO":999,"REV_AT_EPOCH":36816,"BSTAR":0.00026492,"MEAN_MOTION_DOT":0.00010454,"MEAN_MOTION_DDOT":0},{"OBJECT_NAME":"JILIN-1 GAOFEN 2B","OBJECT_ID":"2019-086A","EPOCH":"2026-07-08T11:09:39.449088","CLASSIFICATION_TYPE":"U","MEAN_MOTION":15.2094995,"ECCENTRICITY":0.0012731,"INCLINATION":97.4872,"RA_OF_ASC_NODE":261.3247,"ARG_OF_PERICENTER":241.2286,"MEAN_ANOMALY":118.7671,"EPHEMERIS_TYPE":0,"NORAD_CAT_ID":44836,"ELEMENT_SET_NO":999,"REV_AT_EPOCH":36372,"BSTAR":0.00017886,"MEAN_MOTION_DOT":0.00003897,"MEAN_MOTION_DDOT":0},{"OBJECT_NAME":"JILIN-1 GAOFEN 3E","OBJECT_ID":"2020-065D","EPOCH":"2026-07-08T12:20:40.352352","CLASSIFICATION_TYPE":"U","MEAN_MOTION":15.66496509,"ECCENTRICITY":0.0011203,"INCLINATION":97.2224,"RA_OF_ASC_NODE":242.6547,"ARG_OF_PERICENTER":92.9406,"MEAN_ANOMALY":267.3137,"EPHEMERIS_TYPE":0,"NORAD_CAT_ID":46457,"ELEMENT_SET_NO":999,"REV_AT_EPOCH":32309,"BSTAR":0.00058442,"MEAN_MOTION_DOT":0.00061234,"MEAN_MOTION_DDOT":0},{"OBJECT_NAME":"JILIN-1 GAOFEN 3F","OBJECT_ID":"2020-065E","EPOCH":"2026-07-08T12:21:52.371072","CLASSIFICATION_TYPE":"U","MEAN_MOTION":15.63338409,"ECCENTRICITY":0.0012608,"INCLINATION":97.218,"RA_OF_ASC_NODE":239.883,"ARG_OF_PERICENTER":80.1897,"MEAN_ANOMALY":280.0785,"EPHEMERIS_TYPE":0,"NORAD_CAT_ID":46458,"ELEMENT_SET_NO":999,"REV_AT_EPOCH":32303,"BSTAR":0.00051986,"MEAN_MOTION_DOT":0.00048017,"MEAN_MOTION_DDOT":0},{"OBJECT_NAME":"JILIN-1 GAOFEN 3G","OBJECT_ID":"2020-065F","EPOCH":"2026-07-08T09:23:44.450880","CLASSIFICATION_TYPE":"U","MEAN_MOTION":15.75657463,"ECCENTRICITY":0.0004782,"INCLINATION":97.2238,"RA_OF_ASC_NODE":246.9426,"ARG_OF_PERICENTER":313.9525,"MEAN_ANOMALY":46.1345,"EPHEMERIS_TYPE":0,"NORAD_CAT_ID":46459,"ELEMENT_SET_NO":999,"REV_AT_EPOCH":32327,"BSTAR":0.00065246,"MEAN_MOTION_DOT":0.00100409,"MEAN_MOTION_DDOT":0},{"OBJECT_NAME":"JILIN-1 GAOFEN 3H","OBJECT_ID":"2020-065G","EPOCH":"2026-07-08T11:29:57.726240","CLASSIFICATION_TYPE":"U","MEAN_MOTION":15.71298779,"ECCENTRICITY":0.000534,"INCLINATION":97.2182,"RA_OF_ASC_NODE":243.2201,"ARG_OF_PERICENTER":226.7047,"MEAN_ANOMALY":133.3771,"EPHEMERIS_TYPE":0,"NORAD_CAT_ID":46460,"ELEMENT_SET_NO":999,"REV_AT_EPOCH":32322,"BSTAR":0.00061038,"MEAN_MOTION_DOT":0.00077806,"MEAN_MOTION_DDOT":0},{"OBJECT_NAME":"JILIN-1 GAOFEN 2D","OBJECT_ID":"2021-086A","EPOCH":"2026-07-08T11:42:08.957088","CLASSIFICATION_TYPE":"U","MEAN_MOTION":15.10831009,"ECCENTRICITY":0.0034395,"INCLINATION":97.6496,"RA_OF_ASC_NODE":312.1965,"ARG_OF_PERICENTER":72.8024,"MEAN_ANOMALY":287.6966,"EPHEMERIS_TYPE":0,"NORAD_CAT_ID":49256,"ELEMENT_SET_NO":999,"REV_AT_EPOCH":26393,"BSTAR":0.00021916,"MEAN_MOTION_DOT":0.00003627,"MEAN_MOTION_DDOT":0},{"OBJECT_NAME":"JILIN-1 GAOFEN 2F","OBJECT_ID":"2021-097A","EPOCH":"2026-07-08T12:52:35.968224","CLASSIFICATION_TYPE":"U","MEAN_MOTION":15.07917762,"ECCENTRICITY":0.0019504,"INCLINATION":97.6722,"RA_OF_ASC_NODE":315.6881,"ARG_OF_PERICENTER":150.7433,"MEAN_ANOMALY":209.4891,"EPHEMERIS_TYPE":0,"NORAD_CAT_ID":49338,"ELEMENT_SET_NO":999,"REV_AT_EPOCH":25953,"BSTAR":0.00016243,"MEAN_MOTION_DOT":0.00002439,"MEAN_MOTION_DDOT":0},{"OBJECT_NAME":"JILIN-1 GAOFEN 3D27","OBJECT_ID":"2022-048B","EPOCH":"2026-07-08T12:35:46.196736","CLASSIFICATION_TYPE":"U","MEAN_MOTION":15.81252013,"ECCENTRICITY":0.0004404,"INCLINATION":97.5714,"RA_OF_ASC_NODE":305.4884,"ARG_OF_PERICENTER":260.9898,"MEAN_ANOMALY":99.0872,"EPHEMERIS_TYPE":0,"NORAD_CAT_ID":52444,"ELEMENT_SET_NO":999,"REV_AT_EPOCH":23284,"BSTAR":0.00071297,"MEAN_MOTION_DOT":0.00141533,"MEAN_MOTION_DDOT":0},{"OBJECT_NAME":"JILIN-1 GAOFEN 3D28","OBJECT_ID":"2022-048C","EPOCH":"2026-07-08T11:24:20.412864","CLASSIFICATION_TYPE":"U","MEAN_MOTION":15.85659025,"ECCENTRICITY":0.0004015,"INCLINATION":97.5646,"RA_OF_ASC_NODE":305.6896,"ARG_OF_PERICENTER":252.7621,"MEAN_ANOMALY":107.321,"EPHEMERIS_TYPE":0,"NORAD_CAT_ID":52445,"ELEMENT_SET_NO":999,"REV_AT_EPOCH":23289,"BSTAR":0.00075333,"MEAN_MOTION_DOT":0.0018477,"MEAN_MOTION_DDOT":0},{"OBJECT_NAME":"JILIN-1 GAOFEN 3D29","OBJECT_ID":"2022-048D","EPOCH":"2026-07-08T10:44:09.286080","CLASSIFICATION_TYPE":"U","MEAN_MOTION":15.81428246,"ECCENTRICITY":0.000395,"INCLINATION":97.572,"RA_OF_ASC_NODE":305.7665,"ARG_OF_PERICENTER":239.1911,"MEAN_ANOMALY":120.8968,"EPHEMERIS_TYPE":0,"NORAD_CAT_ID":52446,"ELEMENT_SET_NO":999,"REV_AT_EPOCH":23285,"BSTAR":0.00067228,"MEAN_MOTION_DOT":0.00134407,"MEAN_MOTION_DDOT":0},{"OBJECT_NAME":"JILIN-1 GAOFEN 3D31","OBJECT_ID":"2022-048F","EPOCH":"2026-07-08T12:25:36.454656","CLASSIFICATION_TYPE":"U","MEAN_MOTION":15.90588139,"ECCENTRICITY":0.0004922,"INCLINATION":97.5702,"RA_OF_ASC_NODE":307.088,"ARG_OF_PERICENTER":246.8036,"MEAN_ANOMALY":113.2719,"EPHEMERIS_TYPE":0,"NORAD_CAT_ID":52448,"ELEMENT_SET_NO":999,"REV_AT_EPOCH":23296,"BSTAR":0.0007885,"MEAN_MOTION_DOT":0.00241065,"MEAN_MOTION_DDOT":0.000023482},{"OBJECT_NAME":"JILIN-1 GAOFEN 03D09","OBJECT_ID":"2022-098B","EPOCH":"2026-07-08T12:39:23.759712","CLASSIFICATION_TYPE":"U","MEAN_MOTION":15.69447403,"ECCENTRICITY":0.0002931,"INCLINATION":97.5614,"RA_OF_ASC_NODE":320.8467,"ARG_OF_PERICENTER":255.1014,"MEAN_ANOMALY":104.9922,"EPHEMERIS_TYPE":0,"NORAD_CAT_ID":53445,"ELEMENT_SET_NO":999,"REV_AT_EPOCH":21797,"BSTAR":0.0005655,"MEAN_MOTION_DOT":0.00066629,"MEAN_MOTION_DDOT":0},{"OBJECT_NAME":"JILIN-1 GAOFEN 03D43","OBJECT_ID":"2022-098E","EPOCH":"2026-07-08T12:27:11.302848","CLASSIFICATION_TYPE":"U","MEAN_MOTION":15.73024034,"ECCENTRICITY":0.0003228,"INCLINATION":97.5596,"RA_OF_ASC_NODE":321.9603,"ARG_OF_PERICENTER":247.1255,"MEAN_ANOMALY":112.9668,"EPHEMERIS_TYPE":0,"NORAD_CAT_ID":53448,"ELEMENT_SET_NO":999,"REV_AT_EPOCH":21804,"BSTAR":0.00056513,"MEAN_MOTION_DOT":0.00077418,"MEAN_MOTION_DDOT":0},{"OBJECT_NAME":"JILIN-1 GAOFEN 03D08","OBJECT_ID":"2022-155A","EPOCH":"2026-07-08T12:15:55.259136","CLASSIFICATION_TYPE":"U","MEAN_MOTION":15.66916574,"ECCENTRICITY":0.0003884,"INCLINATION":97.6225,"RA_OF_ASC_NODE":336.6531,"ARG_OF_PERICENTER":251.9448,"MEAN_ANOMALY":108.1388,"EPHEMERIS_TYPE":0,"NORAD_CAT_ID":54251,"ELEMENT_SET_NO":999,"REV_AT_EPOCH":20315,"BSTAR":0.00047142,"MEAN_MOTION_DOT":0.00049998,"MEAN_MOTION_DDOT":0}]}
