JILIN-1 GAOFEN 3A       
1 44312U 19032C   26189.52562563  .00006211  00000+0  19992-3 0  9991
2 44312  44.9745 239.4582 0004702  55.9586 304.1745 15.33102641391118
JILIN-1 GAOFEN 2A       
1 44777U 19075A   26189.51826384  .00010454  00000+0  26492-3 0  9993
2 44777  97.4958 273.8145 0005849  19.8252 340.3220 15.39892286368167
JILIN-1 GAOFEN 2B       
1 44836U 19086A   26189.46503992  .00003897  00000+0  17886-3 0  9992
2 44836  97.4872 261.3247 0012731 241.2286 118.7671 15.20949950363724
JILIN-1 GAOFEN 3E       
1 46457U 20065D   26189.51435593  .00061234  00000+0  58442-3 0  9991
2 46457  97.2224 242.6547 0011203  92.9406 267.3137 15.66496509323098
JILIN-1 GAOFEN 3F       
1 46458U 20065E   26189.51518948  .00048017  00000+0  51986-3 0  9998
2 46458  97.2180 239.8830 0012608  80.1897 280.0785 15.63338409323032
JILIN-1 GAOFEN 3G       
1 46459U 20065F   26189.39148670  .00100409  00000+0  65246-3 0  9994
2 46459  97.2238 246.9426 0004782 313.9525  46.1345 15.75657463323272
JILIN-1 GAOFEN 3H       
1 46460U 20065G   26189.47914035  .00077806  00000+0  61038-3 0  9990
2 46460  97.2182 243.2201 0005340 226.7047 133.3771 15.71298779323228
JILIN-1 GAOFEN 2D       
1 49256U 21086A   26189.48760367  .00003627  00000+0  21916-3 0  9999
2 49256  97.6496 312.1965 0034395  72.8024 287.6966 15.10831009263938
JILIN-1 GAOFEN 2F       
1 49338U 21097A   26189.53652741  .00002439  00000+0  16243-3 0  9991
2 49338  97.6722 315.6881 0019504 150.7433 209.4891 15.07917762259538
JILIN-1 GAOFEN 3D27     
1 52444U 22048B   26189.52484024  .00141533  00000+0  71297-3 0  9995
2 52444  97.5714 305.4884 0004404 260.9898  99.0872 15.81252013232842
JILIN-1 GAOFEN 3D28     
1 52445U 22048C   26189.47523626  .00184770  00000+0  75333-3 0  9997
2 52445  97.5646 305.6896 0004015 252.7621 107.3210 15.85659025232895
JILIN-1 GAOFEN 3D29     
1 52446U 22048D   26189.44732970  .00134407  00000+0  67228-3 0  9995
2 52446  97.5720 305.7665 0003950 239.1911 120.8968 15.81428246232853
JILIN-1 GAOFEN 3D31     
1 52448U 22048F   26189.51778304  .00241065  23482-4  78850-3 0  9992
2 52448  97.5702 307.0880 0004922 246.8036 113.2719 15.90588139232962
JILIN-1 GAOFEN 03D09    
1 53445U 22098B   26189.52735833  .00066629  00000+0  56550-3 0  9996
2 53445  97.5614 320.8467 0002931 255.1014 104.9922 15.69447403217974
JILIN-1 GAOFEN 03D43    
1 53448U 22098E   26189.51888082  .00077418  00000+0  56513-3 0  9990
2 53448  97.5596 321.9603 0003228 247.1255 112.9668 15.73024034218049
JILIN-1 GAOFEN 03D08    
1 54251U 22155A   26189.51105624  .00049998  00000+0  47142-3 0  9991
2 54251  97.6225 336.6531 0003884 251.9448 108.1388 15.66916574203153
